CCSDS_OMM_VERS = 2.0
CREATION_DATE  = 
ORIGINATOR     = 

OBJECT_NAME    = UNKNOWN
OBJECT_ID      = 
CENTER_NAME    = EARTH
REF_FRAME      = TEME
TIME_SYSTEM    = UTC
MEAN_ELEMENT_THEORY = SGP/SGP4

EPOCH          = 2025-12-16T18:16:56.386272
MEAN_MOTION    = 12.97932299
ECCENTRICITY   = .00287815
INCLINATION    = 90.2325
RA_OF_ASC_NODE = 1.3443
ARG_OF_PERICENTER = 157.7457
MEAN_ANOMALY   = 202.4920

EPHEMERIS_TYPE = 0
CLASSIFICATION_TYPE = U
NORAD_CAT_ID   = 270058
ELEMENT_SET_NO = 999
REV_AT_EPOCH   = 28687
BSTAR          = -.65172437E-3
MEAN_MOTION_DOT = -.183E-5
MEAN_MOTION_DDOT = 0

CCSDS_OMM_VERS = 2.0
CREATION_DATE  = 
ORIGINATOR     = 

OBJECT_NAME    = UNKNOWN
OBJECT_ID      = 
CENTER_NAME    = EARTH
REF_FRAME      = TEME
TIME_SYSTEM    = UTC
MEAN_ELEMENT_THEORY = SGP/SGP4

EPOCH          = 2025-12-09T12:57:40.154976
MEAN_MOTION    = 12.23000081
ECCENTRICITY   = .01288666
INCLINATION    = 73.9984
RA_OF_ASC_NODE = 49.0661
ARG_OF_PERICENTER = 40.8572
MEAN_ANOMALY   = 320.2037

EPHEMERIS_TYPE = 0
CLASSIFICATION_TYPE = U
NORAD_CAT_ID   = 270059
ELEMENT_SET_NO = 999
REV_AT_EPOCH   = 26959
BSTAR          = .52071221E-3
MEAN_MOTION_DOT = .43E-6
MEAN_MOTION_DDOT = 0

CCSDS_OMM_VERS = 2.0
CREATION_DATE  = 
ORIGINATOR     = 

OBJECT_NAME    = UNKNOWN
OBJECT_ID      = 
CENTER_NAME    = EARTH
REF_FRAME      = TEME
TIME_SYSTEM    = UTC
MEAN_ELEMENT_THEORY = SGP/SGP4

EPOCH          = 2025-12-15T14:10:01.133760
MEAN_MOTION    = 13.49626360
ECCENTRICITY   = .05336739
INCLINATION    = 30.1034
RA_OF_ASC_NODE = 87.2268
ARG_OF_PERICENTER = 137.9901
MEAN_ANOMALY   = 226.2887

EPHEMERIS_TYPE = 0
CLASSIFICATION_TYPE = U
NORAD_CAT_ID   = 270060
ELEMENT_SET_NO = 999
REV_AT_EPOCH   = 29641
BSTAR          = .27480499E-2
MEAN_MOTION_DOT = .4342E-4
MEAN_MOTION_DDOT = 0

CCSDS_OMM_VERS = 2.0
CREATION_DATE  = 
ORIGINATOR     = 

OBJECT_NAME    = UNKNOWN
OBJECT_ID      = 
CENTER_NAME    = EARTH
REF_FRAME      = TEME
TIME_SYSTEM    = UTC
MEAN_ELEMENT_THEORY = SGP/SGP4

EPOCH          = 2025-12-13T22:28:07.585824
MEAN_MOTION    = 12.22114277
ECCENTRICITY   = .05164566
INCLINATION    = 82.0641
RA_OF_ASC_NODE = 67.4012
ARG_OF_PERICENTER = 117.7929
MEAN_ANOMALY   = 247.6477

EPHEMERIS_TYPE = 0
CLASSIFICATION_TYPE = U
NORAD_CAT_ID   = 270061
ELEMENT_SET_NO = 999
REV_AT_EPOCH   = 26911
BSTAR          = .47181718E-1
MEAN_MOTION_DOT = .7698E-4
MEAN_MOTION_DDOT = 0

CCSDS_OMM_VERS = 2.0
CREATION_DATE  = 
ORIGINATOR     = 

OBJECT_NAME    = UNKNOWN
OBJECT_ID      = 
CENTER_NAME    = EARTH
REF_FRAME      = TEME
TIME_SYSTEM    = UTC
MEAN_ELEMENT_THEORY = SGP/SGP4

EPOCH          = 2025-12-15T02:24:12.288672
MEAN_MOTION    = 14.24208137
ECCENTRICITY   = .00368842
INCLINATION    = 98.8425
RA_OF_ASC_NODE = 296.4356
ARG_OF_PERICENTER = 56.1300
MEAN_ANOMALY   = 304.3379

EPHEMERIS_TYPE = 0
CLASSIFICATION_TYPE = U
NORAD_CAT_ID   = 270063
ELEMENT_SET_NO = 999
REV_AT_EPOCH   = 31438
BSTAR          = .17205633E-3
MEAN_MOTION_DOT = .354E-5
MEAN_MOTION_DDOT = 0

CCSDS_OMM_VERS = 2.0
CREATION_DATE  = 
ORIGINATOR     = 

OBJECT_NAME    = UNKNOWN
OBJECT_ID      = 
CENTER_NAME    = EARTH
REF_FRAME      = TEME
TIME_SYSTEM    = UTC
MEAN_ELEMENT_THEORY = SGP/SGP4

EPOCH          = 2025-12-15T21:49:21.658080
MEAN_MOTION    = 14.47474688
ECCENTRICITY   = .00122357
INCLINATION    = 97.9888
RA_OF_ASC_NODE = 216.2170
ARG_OF_PERICENTER = 88.0626
MEAN_ANOMALY   = 272.1969

EPHEMERIS_TYPE = 0
CLASSIFICATION_TYPE = U
NORAD_CAT_ID   = 270064
ELEMENT_SET_NO = 999
REV_AT_EPOCH   = 31895
BSTAR          = .15426025E-3
MEAN_MOTION_DOT = .527E-5
MEAN_MOTION_DDOT = 0

CCSDS_OMM_VERS = 2.0
CREATION_DATE  = 
ORIGINATOR     = 

OBJECT_NAME    = UNKNOWN
OBJECT_ID      = 
CENTER_NAME    = EARTH
REF_FRAME      = TEME
TIME_SYSTEM    = UTC
MEAN_ELEMENT_THEORY = SGP/SGP4

EPOCH          = 2025-12-15T20:38:23.727840
MEAN_MOTION    = 12.22966839
ECCENTRICITY   = .01312175
INCLINATION    = 74.0028
RA_OF_ASC_NODE = 42.4660
ARG_OF_PERICENTER = 32.6274
MEAN_ANOMALY   = 328.2784

EPHEMERIS_TYPE = 0
CLASSIFICATION_TYPE = U
NORAD_CAT_ID   = 270065
ELEMENT_SET_NO = 999
REV_AT_EPOCH   = 27030
BSTAR          = .86401545E-4
MEAN_MOTION_DOT = -.5E-7
MEAN_MOTION_DDOT = 0

CCSDS_OMM_VERS = 2.0
CREATION_DATE  = 
ORIGINATOR     = 

OBJECT_NAME    = UNKNOWN
OBJECT_ID      = 
CENTER_NAME    = EARTH
REF_FRAME      = TEME
TIME_SYSTEM    = UTC
MEAN_ELEMENT_THEORY = SGP/SGP4

EPOCH          = 2025-12-13T14:01:43.933728
MEAN_MOTION    = 14.62827568
ECCENTRICITY   = .00096589
INCLINATION    = 32.2228
RA_OF_ASC_NODE = 304.9767
ARG_OF_PERICENTER = 37.1111
MEAN_ANOMALY   = 323.0202

EPHEMERIS_TYPE = 0
CLASSIFICATION_TYPE = U
NORAD_CAT_ID   = 270066
ELEMENT_SET_NO = 999
REV_AT_EPOCH   = 32331
BSTAR          = .16214721E-3
MEAN_MOTION_DOT = .877E-5
MEAN_MOTION_DDOT = 0

CCSDS_OMM_VERS = 2.0
CREATION_DATE  = 
ORIGINATOR     = 

OBJECT_NAME    = UNKNOWN
OBJECT_ID      = 
CENTER_NAME    = EARTH
REF_FRAME      = TEME
TIME_SYSTEM    = UTC
MEAN_ELEMENT_THEORY = SGP/SGP4

EPOCH          = 2025-12-14T19:44:02.361120
MEAN_MOTION    = 12.96459895
ECCENTRICITY   = .00289911
INCLINATION    = 90.2467
RA_OF_ASC_NODE = 9.6418
ARG_OF_PERICENTER = 243.5370
MEAN_ANOMALY   = 116.2776

EPHEMERIS_TYPE = 0
CLASSIFICATION_TYPE = U
NORAD_CAT_ID   = 270067
ELEMENT_SET_NO = 999
REV_AT_EPOCH   = 28630
BSTAR          = .21103558E-2
MEAN_MOTION_DOT = .612E-5
MEAN_MOTION_DDOT = 0

CCSDS_OMM_VERS = 2.0
CREATION_DATE  = 
ORIGINATOR     = 

OBJECT_NAME    = UNKNOWN
OBJECT_ID      = 
CENTER_NAME    = EARTH
REF_FRAME      = TEME
TIME_SYSTEM    = UTC
MEAN_ELEMENT_THEORY = SGP/SGP4

EPOCH          = 2025-12-01T06:36:20.361888
MEAN_MOTION    = 12.67835152
ECCENTRICITY   = .07779348
INCLINATION    = 73.1504
RA_OF_ASC_NODE = 175.3734
ARG_OF_PERICENTER = 164.1077
MEAN_ANOMALY   = 198.5968

EPHEMERIS_TYPE = 0
CLASSIFICATION_TYPE = U
NORAD_CAT_ID   = 270068
ELEMENT_SET_NO = 999
REV_AT_EPOCH   = 27727
BSTAR          = .25562106E-2
MEAN_MOTION_DOT = .1645E-4
MEAN_MOTION_DDOT = 0

CCSDS_OMM_VERS = 2.0
CREATION_DATE  = 
ORIGINATOR     = 

OBJECT_NAME    = UNKNOWN
OBJECT_ID      = 
CENTER_NAME    = EARTH
REF_FRAME      = TEME
TIME_SYSTEM    = UTC
MEAN_ELEMENT_THEORY = SGP/SGP4

EPOCH          = 2025-12-13T04:42:24.508800
MEAN_MOTION    = 14.11298077
ECCENTRICITY   = .00635916
INCLINATION    = 46.9544
RA_OF_ASC_NODE = 313.2679
ARG_OF_PERICENTER = 335.3860
MEAN_ANOMALY   = 24.3975

EPHEMERIS_TYPE = 0
CLASSIFICATION_TYPE = U
NORAD_CAT_ID   = 270069
ELEMENT_SET_NO = 999
REV_AT_EPOCH   = 30819
BSTAR          = .84507953E-2
MEAN_MOTION_DOT = .1556E-3
MEAN_MOTION_DDOT = 0

CCSDS_OMM_VERS = 2.0
CREATION_DATE  = 
ORIGINATOR     = 

OBJECT_NAME    = UNKNOWN
OBJECT_ID      = 
CENTER_NAME    = EARTH
REF_FRAME      = TEME
TIME_SYSTEM    = UTC
MEAN_ELEMENT_THEORY = SGP/SGP4

EPOCH          = 2025-12-14T12:58:07.543776
MEAN_MOTION    = 13.50086638
ECCENTRICITY   = .07196824
INCLINATION    = 62.8008
RA_OF_ASC_NODE = 79.9400
ARG_OF_PERICENTER = 346.4537
MEAN_ANOMALY   = 11.8028

EPHEMERIS_TYPE = 0
CLASSIFICATION_TYPE = U
NORAD_CAT_ID   = 270070
ELEMENT_SET_NO = 999
REV_AT_EPOCH   = 29750
BSTAR          = .32732678E-3
MEAN_MOTION_DOT = .982E-5
MEAN_MOTION_DDOT = 0

CCSDS_OMM_VERS = 2.0
CREATION_DATE  = 
ORIGINATOR     = 

OBJECT_NAME    = UNKNOWN
OBJECT_ID      = 
CENTER_NAME    = EARTH
REF_FRAME      = TEME
TIME_SYSTEM    = UTC
MEAN_ELEMENT_THEORY = SGP/SGP4

EPOCH          = 2025-12-14T22:59:06.417888
MEAN_MOTION    = 11.27809673
ECCENTRICITY   = .01474409
INCLINATION    = 64.7969
RA_OF_ASC_NODE = 223.5264
ARG_OF_PERICENTER = 63.9979
MEAN_ANOMALY   = 297.6046

EPHEMERIS_TYPE = 0
CLASSIFICATION_TYPE = U
NORAD_CAT_ID   = 270071
ELEMENT_SET_NO = 999
REV_AT_EPOCH   = 24930
BSTAR          = .42392433E-3
MEAN_MOTION_DOT = -.28E-6
MEAN_MOTION_DDOT = 0

CCSDS_OMM_VERS = 2.0
CREATION_DATE  = 
ORIGINATOR     = 

OBJECT_NAME    = UNKNOWN
OBJECT_ID      = 
CENTER_NAME    = EARTH
REF_FRAME      = TEME
TIME_SYSTEM    = UTC
MEAN_ELEMENT_THEORY = SGP/SGP4

EPOCH          = 2025-12-13T10:02:30.123744
MEAN_MOTION    = 11.27762509
ECCENTRICITY   = .01504978
INCLINATION    = 64.8100
RA_OF_ASC_NODE = 235.4238
ARG_OF_PERICENTER = 45.8025
MEAN_ANOMALY   = 315.5150

EPHEMERIS_TYPE = 0
CLASSIFICATION_TYPE = U
NORAD_CAT_ID   = 270072
ELEMENT_SET_NO = 999
REV_AT_EPOCH   = 24905
BSTAR          = .34819547E-3
MEAN_MOTION_DOT = -.3E-6
MEAN_MOTION_DDOT = 0

CCSDS_OMM_VERS = 2.0
CREATION_DATE  = 
ORIGINATOR     = 

OBJECT_NAME    = UNKNOWN
OBJECT_ID      = 
CENTER_NAME    = EARTH
REF_FRAME      = TEME
TIME_SYSTEM    = UTC
MEAN_ELEMENT_THEORY = SGP/SGP4

EPOCH          = 2025-12-16T09:32:19.419072
MEAN_MOTION    = 13.23050133
ECCENTRICITY   = .01577987
INCLINATION    = 100.3447
RA_OF_ASC_NODE = 48.6431
ARG_OF_PERICENTER = 139.0419
MEAN_ANOMALY   = 222.2677

EPHEMERIS_TYPE = 0
CLASSIFICATION_TYPE = U
NORAD_CAT_ID   = 270073
ELEMENT_SET_NO = 999
REV_AT_EPOCH   = 29214
BSTAR          = .10573114E-2
MEAN_MOTION_DOT = .432E-5
MEAN_MOTION_DDOT = 0

CCSDS_OMM_VERS = 2.0
CREATION_DATE  = 
ORIGINATOR     = 

OBJECT_NAME    = UNKNOWN
OBJECT_ID      = 
CENTER_NAME    = EARTH
REF_FRAME      = TEME
TIME_SYSTEM    = UTC
MEAN_ELEMENT_THEORY = SGP/SGP4

EPOCH          = 2025-12-12T17:45:13.133376
MEAN_MOTION    = 12.86029445
ECCENTRICITY   = .04668897
INCLINATION    = 63.2969
RA_OF_ASC_NODE = 150.9085
ARG_OF_PERICENTER = 15.3269
MEAN_ANOMALY   = 346.1333

EPHEMERIS_TYPE = 0
CLASSIFICATION_TYPE = U
NORAD_CAT_ID   = 270074
ELEMENT_SET_NO = 999
REV_AT_EPOCH   = 28368
BSTAR          = .12711487E-2
MEAN_MOTION_DOT = .428E-5
MEAN_MOTION_DDOT = 0

